[{"OBJECT_NAME":"STARLINK-3135","OBJECT_ID":"2021-104S","EPOCH":"2026-03-18T13:35:03.689088","MEAN_MOTION":15.08840285,"ECCENTRICITY":0.0001216,"INCLINATION":53.217,"RA_OF_ASC_NODE":189.2744,"ARG_OF_PERICENTER":87.8607,"MEAN_ANOMALY":272.2525,"EPHEMERIS_TYPE":0,"CLASSIFICATION_TYPE":"U","NORAD_CAT_ID":49424,"ELEMENT_SET_NO":999,"REV_AT_EPOCH":23996,"BSTAR":3.6598422e-5,"MEAN_MOTION_DOT":2.95e-6,"MEAN_MOTION_DDOT":0},{"OBJECT_NAME":"STARLINK-3139","OBJECT_ID":"2021-104T","EPOCH":"2026-03-18T00:32:10.032576","MEAN_MOTION":15.08834436,"ECCENTRICITY":0.00012054,"INCLINATION":53.2175,"RA_OF_ASC_NODE":191.7256,"ARG_OF_PERICENTER":78.4257,"MEAN_ANOMALY":281.6871,"EPHEMERIS_TYPE":0,"CLASSIFICATION_TYPE":"U","NORAD_CAT_ID":49425,"ELEMENT_SET_NO":999,"REV_AT_EPOCH":23989,"BSTAR":4.7114925e-5,"MEAN_MOTION_DOT":4.62e-6,"MEAN_MOTION_DDOT":0},{"OBJECT_NAME":"STARLINK-3114","OBJECT_ID":"2021-104U","EPOCH":"2026-03-18T00:41:24.154656","MEAN_MOTION":15.08822463,"ECCENTRICITY":0.00013256,"INCLINATION":53.2179,"RA_OF_ASC_NODE":191.6855,"ARG_OF_PERICENTER":71.4212,"MEAN_ANOMALY":288.6924,"EPHEMERIS_TYPE":0,"CLASSIFICATION_TYPE":"U","NORAD_CAT_ID":49426,"ELEMENT_SET_NO":999,"REV_AT_EPOCH":23988,"BSTAR":-0.00012019054,"MEAN_MOTION_DOT":-2.199e-5,"MEAN_MOTION_DDOT":0},{"OBJECT_NAME":"STARLINK-3131","OBJECT_ID":"2021-104V","EPOCH":"2026-03-17T18:05:19.345632","MEAN_MOTION":15.08827857,"ECCENTRICITY":0.00016791,"INCLINATION":53.2175,"RA_OF_ASC_NODE":192.9295,"ARG_OF_PERICENTER":78.5103,"MEAN_ANOMALY":281.6078,"EPHEMERIS_TYPE":0,"CLASSIFICATION_TYPE":"U","NORAD_CAT_ID":49427,"ELEMENT_SET_NO":999,"REV_AT_EPOCH":23985,"BSTAR":0.00048904078,"MEAN_MOTION_DOT":7.501e-5,"MEAN_MOTION_DDOT":0},{"OBJECT_NAME":"STARLINK-3121","OBJECT_ID":"2021-104W","EPOCH":"2026-03-18T14:17:26.878272","MEAN_MOTION":15.08839054,"ECCENTRICITY":0.0001306,"INCLINATION":53.2174,"RA_OF_ASC_NODE":189.0518,"ARG_OF_PERICENTER":89.6999,"MEAN_ANOMALY":270.4142,"EPHEMERIS_TYPE":0,"CLASSIFICATION_TYPE":"U","NORAD_CAT_ID":49428,"ELEMENT_SET_NO":999,"REV_AT_EPOCH":23998,"BSTAR":1.0345274e-5,"MEAN_MOTION_DOT":-1.23e-6,"MEAN_MOTION_DDOT":0},{"OBJECT_NAME":"STARLINK-3138","OBJECT_ID":"2021-104Y","EPOCH":"2026-03-18T13:41:47.571936","MEAN_MOTION":15.0883984,"ECCENTRICITY":0.0002086,"INCLINATION":53.2039,"RA_OF_ASC_NODE":189.5338,"ARG_OF_PERICENTER":84.1513,"MEAN_ANOMALY":275.9717,"EPHEMERIS_TYPE":0,"CLASSIFICATION_TYPE":"U","NORAD_CAT_ID":49430,"ELEMENT_SET_NO":999,"REV_AT_EPOCH":23997,"BSTAR":4.9394133e-5,"MEAN_MOTION_DOT":4.98e-6,"MEAN_MOTION_DDOT":0},{"OBJECT_NAME":"STARLINK-3153","OBJECT_ID":"2021-104Z","EPOCH":"2026-03-18T14:06:53.421984","MEAN_MOTION":15.08838243,"ECCENTRICITY":0.00012491,"INCLINATION":53.2138,"RA_OF_ASC_NODE":189.3552,"ARG_OF_PERICENTER":93.5666,"MEAN_ANOMALY":266.5469,"EPHEMERIS_TYPE":0,"CLASSIFICATION_TYPE":"U","NORAD_CAT_ID":49431,"ELEMENT_SET_NO":999,"REV_AT_EPOCH":23997,"BSTAR":1.2295766e-5,"MEAN_MOTION_DOT":-9.2e-7,"MEAN_MOTION_DDOT":0},{"OBJECT_NAME":"STARLINK-3158","OBJECT_ID":"2021-104AA","EPOCH":"2026-03-18T13:48:22.049280","MEAN_MOTION":15.08835786,"ECCENTRICITY":0.00013138,"INCLINATION":53.2184,"RA_OF_ASC_NODE":179.2306,"ARG_OF_PERICENTER":88.3893,"MEAN_ANOMALY":271.7249,"EPHEMERIS_TYPE":0,"CLASSIFICATION_TYPE":"U","NORAD_CAT_ID":49432,"ELEMENT_SET_NO":999,"REV_AT_EPOCH":24011,"BSTAR":3.4091163e-5,"MEAN_MOTION_DOT":2.55e-6,"MEAN_MOTION_DDOT":0},{"OBJECT_NAME":"STARLINK-3079","OBJECT_ID":"2021-104AB","EPOCH":"2026-03-18T12:12:56.866464","MEAN_MOTION":15.08827505,"ECCENTRICITY":5.863e-5,"INCLINATION":53.2167,"RA_OF_ASC_NODE":169.5297,"ARG_OF_PERICENTER":111.1654,"MEAN_ANOMALY":248.9401,"EPHEMERIS_TYPE":0,"CLASSIFICATION_TYPE":"U","NORAD_CAT_ID":49433,"ELEMENT_SET_NO":999,"REV_AT_EPOCH":24133,"BSTAR":-2.8052331e-5,"MEAN_MOTION_DOT":-7.34e-6,"MEAN_MOTION_DDOT":0},{"OBJECT_NAME":"STARLINK-3134","OBJECT_ID":"2021-104AC","EPOCH":"2026-03-18T00:36:06.680448","MEAN_MOTION":15.08840767,"ECCENTRICITY":0.00010595,"INCLINATION":53.2171,"RA_OF_ASC_NODE":191.8617,"ARG_OF_PERICENTER":82.2872,"MEAN_ANOMALY":277.824,"EPHEMERIS_TYPE":0,"CLASSIFICATION_TYPE":"U","NORAD_CAT_ID":49434,"ELEMENT_SET_NO":999,"REV_AT_EPOCH":24097,"BSTAR":0.00012831467,"MEAN_MOTION_DOT":1.755e-5,"MEAN_MOTION_DDOT":0},{"OBJECT_NAME":"STARLINK-3117","OBJECT_ID":"2021-104AD","EPOCH":"2026-03-18T12:19:36.232320","MEAN_MOTION":15.08841662,"ECCENTRICITY":0.00015404,"INCLINATION":53.2103,"RA_OF_ASC_NODE":169.5092,"ARG_OF_PERICENTER":89.3023,"MEAN_ANOMALY":270.8145,"EPHEMERIS_TYPE":0,"CLASSIFICATION_TYPE":"U","NORAD_CAT_ID":49435,"ELEMENT_SET_NO":999,"REV_AT_EPOCH":24024,"BSTAR":7.2346024e-5,"MEAN_MOTION_DOT":8.64e-6,"MEAN_MOTION_DDOT":0},{"OBJECT_NAME":"STARLINK-3049","OBJECT_ID":"2021-104AE","EPOCH":"2026-03-16T23:44:21.345216","MEAN_MOTION":15.08841044,"ECCENTRICITY":0.0001094,"INCLINATION":53.2172,"RA_OF_ASC_NODE":176.3523,"ARG_OF_PERICENTER":84.0136,"MEAN_ANOMALY":276.0981,"EPHEMERIS_TYPE":0,"CLASSIFICATION_TYPE":"U","NORAD_CAT_ID":49436,"ELEMENT_SET_NO":999,"REV_AT_EPOCH":24001,"BSTAR":-1.1056e-5,"MEAN_MOTION_DOT":-4.64e-6,"MEAN_MOTION_DDOT":0},{"OBJECT_NAME":"STARLINK-3130","OBJECT_ID":"2021-104AF","EPOCH":"2026-03-17T23:24:33.254496","MEAN_MOTION":15.08811295,"ECCENTRICITY":8.993e-5,"INCLINATION":53.2168,"RA_OF_ASC_NODE":171.9263,"ARG_OF_PERICENTER":98.7738,"MEAN_ANOMALY":261.3356,"EPHEMERIS_TYPE":0,"CLASSIFICATION_TYPE":"U","NORAD_CAT_ID":49437,"ELEMENT_SET_NO":999,"REV_AT_EPOCH":24016,"BSTAR":0.00036900997,"MEAN_MOTION_DOT":5.585e-5,"MEAN_MOTION_DDOT":0},{"OBJECT_NAME":"STARLINK-3044","OBJECT_ID":"2021-104AG","EPOCH":"2026-03-18T15:03:52.184448","MEAN_MOTION":15.08840418,"ECCENTRICITY":0.00014455,"INCLINATION":53.2138,"RA_OF_ASC_NODE":168.9302,"ARG_OF_PERICENTER":83.8093,"MEAN_ANOMALY":276.3064,"EPHEMERIS_TYPE":0,"CLASSIFICATION_TYPE":"U","NORAD_CAT_ID":49438,"ELEMENT_SET_NO":999,"REV_AT_EPOCH":24026,"BSTAR":9.895918e-5,"MEAN_MOTION_DOT":1.287e-5,"MEAN_MOTION_DDOT":0},{"OBJECT_NAME":"STARLINK-3105","OBJECT_ID":"2021-104AJ","EPOCH":"2026-03-18T15:07:48.897984","MEAN_MOTION":15.08837243,"ECCENTRICITY":0.00012222,"INCLINATION":53.2191,"RA_OF_ASC_NODE":168.9849,"ARG_OF_PERICENTER":83.3835,"MEAN_ANOMALY":276.7297,"EPHEMERIS_TYPE":0,"CLASSIFICATION_TYPE":"U","NORAD_CAT_ID":49440,"ELEMENT_SET_NO":999,"REV_AT_EPOCH":24026,"BSTAR":-4.98579e-6,"MEAN_MOTION_DOT":-3.67e-6,"MEAN_MOTION_DDOT":0},{"OBJECT_NAME":"STARLINK-3128","OBJECT_ID":"2021-104AK","EPOCH":"2026-03-18T09:55:09.508800","MEAN_MOTION":15.08835109,"ECCENTRICITY":0.00010306,"INCLINATION":53.2172,"RA_OF_ASC_NODE":169.9578,"ARG_OF_PERICENTER":74.7997,"MEAN_ANOMALY":285.3109,"EPHEMERIS_TYPE":0,"CLASSIFICATION_TYPE":"U","NORAD_CAT_ID":49441,"ELEMENT_SET_NO":999,"REV_AT_EPOCH":24023,"BSTAR":-3.09086e-6,"MEAN_MOTION_DOT":-3.37e-6,"MEAN_MOTION_DDOT":0}]
