STARLINK-3135           
1 49424U 21104S   26077.56601492  .00000295  00000+0  36598-4 0  9996
2 49424  53.2170 189.2744 0001216  87.8607 272.2525 15.08840285239969
STARLINK-3139           
1 49425U 21104T   26077.02233834  .00000462  00000+0  47115-4 0  9992
2 49425  53.2175 191.7256 0001205  78.4257 281.6871 15.08834436239897
STARLINK-3114           
1 49426U 21104U   26077.02875179 -.00002199  00000+0 -12019-3 0  9992
2 49426  53.2179 191.6855 0001325  71.4212 288.6924 15.08822463239885
STARLINK-3131           
1 49427U 21104V   26076.75369613  .00007501  00000+0  48904-3 0  9995
2 49427  53.2175 192.9295 0001679  78.5103 281.6078 15.08827857239855
STARLINK-3121           
1 49428U 21104W   26077.59544998 -.00000123  00000+0  10345-4 0  9993
2 49428  53.2174 189.0518 0001306  89.6999 270.4142 15.08839054239987
STARLINK-3138           
1 49430U 21104Y   26077.57068949  .00000498  00000+0  49394-4 0  9991
2 49430  53.2039 189.5338 0002086  84.1513 275.9717 15.08839840239973
STARLINK-3153           
1 49431U 21104Z   26077.58811831 -.00000092  00000+0  12296-4 0  9991
2 49431  53.2138 189.3552 0001249  93.5666 266.5469 15.08838243239979
STARLINK-3158           
1 49432U 21104AA  26077.57525520  .00000255  00000+0  34091-4 0  9995
2 49432  53.2184 179.2306 0001313  88.3893 271.7249 15.08835786240113
STARLINK-3079           
1 49433U 21104AB  26077.50899151 -.00000734  00000+0 -28052-4 0  9997
2 49433  53.2167 169.5297 0000586 111.1654 248.9401 15.08827505241338
STARLINK-3134           
1 49434U 21104AC  26077.02507732  .00001755  00000+0  12831-3 0  9995
2 49434  53.2171 191.8617 0001059  82.2872 277.8240 15.08840767240970
STARLINK-3117           
1 49435U 21104AD  26077.51361380  .00000864  00000+0  72346-4 0  9995
2 49435  53.2103 169.5092 0001540  89.3023 270.8145 15.08841662240248
STARLINK-3049           
1 49436U 21104AE  26075.98913594 -.00000464  00000+0 -11056-4 0  9994
2 49436  53.2172 176.3523 0001094  84.0136 276.0981 15.08841044240016
STARLINK-3130           
1 49437U 21104AF  26076.97538489  .00005585  00000+0  36901-3 0  9993
2 49437  53.2168 171.9263 0000899  98.7738 261.3356 15.08811295240160
STARLINK-3044           
1 49438U 21104AG  26077.62768732  .00001287  00000+0  98959-4 0  9990
2 49438  53.2138 168.9302 0001445  83.8093 276.3064 15.08840418240267
STARLINK-3105           
1 49440U 21104AJ  26077.63042706 -.00000367  00000+0 -49858-5 0  9995
2 49440  53.2191 168.9849 0001222  83.3835 276.7297 15.08837243240261
STARLINK-3128           
1 49441U 21104AK  26077.41330450 -.00000337  00000+0 -30909-5 0  9992
2 49441  53.2172 169.9578 0001030  74.7997 285.3109 15.08835109240235
